satname,norad_id,inclination_deg,eccentricity,mean_motion_rev_per_day,perigee_km,apogee_km,l1,l2
STARLINK-1470,45772,53.0524,0.0007456,15.20991268,497.7188519319343,507.97977872535193,1 45772U 20038AU  25348.30807821  .00045018  00000+0  20062-2 0  9998,2 45772  53.0524 208.3957 0007456  82.4260 277.7582 15.20991268304057
STARLINK-1482,45773,53.0533,0.0001525,15.06399724,546.1562880545698,548.2685196227412,1 45773U 20038AV  25347.93222554  .00004808  00000+0  34142-3 0  9998,2 45773  53.0533 221.5964 0001525  92.5310 267.5854 15.06399724303839
STARLINK-1496,45780,53.0528,0.0001206,15.06422824,546.3064179488001,547.9767951487001,1 45780U 20038BC  25348.03174722  .00014764  00000+0  10074-2 0  9990,2 45780  53.0528 221.1496 0001206  84.8226 275.2900 15.06422824303839
STARLINK-1497,45781,53.0333,0.0003969,15.67831053,362.4325523046291,367.7853409370564,1 45781U 20038BD  25348.33336806  .00282140  00000+0  24354-2 0  9998,2 45781  53.0333 148.1117 0003969 123.2959  79.7344 15.67831053  5801
STARLINK-1510,45784,53.0219,0.0004663,15.92726192,291.54612603541955,297.7691743261794,1 45784U 20038BG  25348.33336806  .00407104  75141-4  11619-2 0  9993,2 45784  53.0219 118.0666 0004663 306.5057 293.6755 15.92726192  5841
STARLINK-1513,45786,53.0532,0.000152,15.06390006,546.1895306416036,548.2948459148392,1 45786U 20038BJ  25348.06123571  .00000321  00000+0  40489-4 0  9994,2 45786  53.0532 221.0199 0001520  96.7166 263.3996 15.06390006303854
STARLINK-1522,46027,53.0548,0.0001443,15.06412402,546.1742255432146,548.1728701673264,1 46027U 20055A   25347.77648706  .00001141  00000+0  95465-4 0  9996,2 46027  53.0548 152.2964 0001443  96.6473 263.4680 15.06412402295934
STARLINK-1523,46028,53.054,9.77e-05,15.06405406,546.5183844410722,547.8715943117959,1 46028U 20055B   25347.92390329  .00003108  00000+0  22739-3 0  9997,2 46028  53.0540 151.6380 0000977 109.1630 250.9465 15.06405406295970
STARLINK-1526,46029,53.054,0.0001265,15.06387003,546.3753305261607,548.1274537893769,1 46029U 20055C   25347.91655926  .00002021  00000+0  15456-3 0  9995,2 46029  53.0540 151.6665 0001265 100.7366 259.3766 15.06387003295969
STARLINK-1555,46032,53.053,0.0001536,15.06386521,546.1891295560399,548.3166093239324,1 46032U 20055F   25348.16720626  .00001800  00000+0  13974-3 0  9994,2 46032  53.0530 150.5414 0001536  96.7663 263.3501 15.06386521296009
STARLINK-1556,46033,53.0527,0.0001145,15.06387469,546.4570071073476,548.042920722085,1 46033U 20055G   25348.14876959  .00002638  00000+0  19598-3 0  9992,2 46033  53.0527 150.6243 0001145  85.4605 274.6515 15.06387469295971
STARLINK-1557,46034,53.0538,0.000111,15.06405427,546.4262131711685,547.9636368585207,1 46034U 20055H   25348.15246116 -.00001709  00000+0 -95854-4 0  9990,2 46034  53.0538 150.6061 0001110  87.9664 272.1452 15.06405427295974
STARLINK-1558,46035,53.0547,0.0001298,15.06386039,546.3554309261854,548.1532625197951,1 46035U 20055J   25348.15983103  .00001099  00000+0  92682-4 0  9991,2 46035  53.0547 150.5781 0001298  98.7257 261.3879 15.06386039296003
STARLINK-1560,46036,53.0538,0.0001393,15.06398717,546.2507885494042,548.1801917531611,1 46036U 20055K   25347.74700381 -.00000579  00000+0 -19988-4 0  9993,2 46036  53.0538 152.4326 0001393  86.4380 273.6768 15.06398717295948
STARLINK-1567,46038,53.0527,0.0001299,15.06389485,546.3441781223173,548.1433920502823,1 46038U 20055M   25348.15614300 -.00002569  00000+0 -15369-3 0  9995,2 46038  53.0527 150.5925 0001299  84.3705 275.7433 15.06389485295994
STARLINK-1569,46039,53.0537,0.0001711,15.06395605,546.040098570038,548.4099574560241,1 46039U 20055N   25348.16351334  .00002970  00000+0  21823-3 0  9998,2 46039  53.0537 150.5603 0001711  81.2591 278.8592 15.06395605295998
STARLINK-1582,46043,53.0537,0.0001736,15.06384434,546.0570171054187,548.4615146889382,1 46043U 20055S   25347.90549651 -.00001349  00000+0 -71736-4 0  9995,2 46043  53.0537 151.7170 0001736  88.0555 272.0633 15.06384434295953
STARLINK-1591,46045,53.053,0.0001409,15.06395005,546.2510831673162,548.2026507050196,1 46045U 20055U   25348.19668354 -.00001982  00000+0 -11422-3 0  9999,2 46045  53.0530 150.4109 0001409  90.4925 269.6225 15.06395005295989
STARLINK-1524,46047,53.0528,0.0001162,15.06390567,546.4357400136578,548.0451977374241,1 46047U 20055W   25348.14969810  .00001638  00000+0  12884-3 0  9996,2 46047  53.0528 140.6207 0001162  86.8545 273.2577 15.06390567296138
STARLINK-1527,46048,53.0549,0.0001449,15.06402155,546.2014711325119,548.2084352305446,1 46048U 20055X   25348.14601769  .00002391  00000+0  17935-3 0  9992,2 46048  53.0549 140.6379 0001449  77.4912 282.6239 15.06402155296118
STARLINK-1540,46051,53.0557,0.0001249,15.06396611,546.3569674224455,548.0869220868453,1 46051U 20055AA  25347.71474848  .00001144  00000+0  95673-4 0  9995,2 46051  53.0557 142.5745 0001249  90.4056 269.7076 15.06396611296081
STARLINK-1541,46052,53.055,0.0001146,15.06393471,546.437921217258,548.0252156931483,1 46052U 20055AB  25348.16444368  .00003363  00000+0  24457-3 0  9996,2 46052  53.0550 140.5534 0001146  92.0412 268.0708 15.06393471296118
STARLINK-1543,46053,53.0548,0.0001173,15.06397695,546.4062782257924,548.0309666548183,1 46053U 20055AC  25348.16812342  .00002283  00000+0  17209-3 0  9995,2 46053  53.0548 140.5372 0001173  93.8973 266.2150 15.06397695296143
STARLINK-1548,46054,53.0548,0.0001185,15.06399116,546.393613147111,548.0349213974541,1 46054U 20055AD  25347.91010329  .00000733  00000+0  68093-4 0  9999,2 46054  53.0548 141.6961 0001185  92.2671 267.8454 15.06399116296101
STARLINK-1554,46055,53.0527,0.0001774,15.0639899,545.9860960612195,548.4432108278625,1 46055U 20055AE  25348.16074974 -.00000340  00000+0 -39366-5 0  9992,2 46055  53.0527 140.5712 0001774  90.7942 269.3251 15.06398990296144
STARLINK-1564,46058,53.0548,0.0001338,15.06404852,546.2700776496486,548.123296944369,1 46058U 20055AH  25347.84011970  .00000859  00000+0  76549-4 0  9992,2 46058  53.0548 142.4731 0001338  88.9675 271.1468 15.06404852296089
STARLINK-1570,46059,53.0547,0.0001113,15.06390943,546.4685220938845,548.0101108619319,1 46059U 20055AJ  25348.13495055  .00000737  00000+0  68383-4 0  9998,2 46059  53.0547 140.6912 0001113  96.2680 263.8436 15.06390943296098
STARLINK-1572,46060,53.0532,0.0001225,15.06412612,546.3245537811508,548.0212547076917,1 46060U 20055AK  25348.13127175  .00004814  00000+0  34175-3 0  9996,2 46060  53.0532 140.7031 0001225  90.6004 269.5126 15.06412612296108
